FLOCK 4G-30             
1 62679U 25009BY  26068.70871344  .00013147  00000+0  49475-3 0  9999
2 62679  97.3969 150.6012 0003795 342.4152  17.6955 15.27244548121341
STARLINK-35834          
1 66570U 25268P   26068.15997786  .00030789  00000+0  11226-2 0  9991
2 66570  42.9969 350.5009 0000279 237.3828 122.6996 15.27613968 17874
